{
    "links": {
        "self": "http://www.neowsapp.com/rest/v1/neo/3873199?api_key=iIulBulltgU6a56xZRHN4H3l9WmuAYTsLGpBGhQ2"
    },
    "id": "3873199",
    "neo_reference_id": "3873199",
    "name": "(2019 SD10)",
    "designation": "2019 SD10",
    "nasa_jpl_url": "http://ssd.jpl.nasa.gov/sbdb.cgi?sstr=3873199",
    "absolute_magnitude_h": 24.6,
    "estimated_diameter": {
        "kilometers": {
            "estimated_diameter_min": 0.0319561887,
            "estimated_diameter_max": 0.0714562102
        },
        "meters": {
            "estimated_diameter_min": 31.9561886721,
            "estimated_diameter_max": 71.4562101727
        },
        "miles": {
            "estimated_diameter_min": 0.0198566489,
            "estimated_diameter_max": 0.0444008168
        },
        "feet": {
            "estimated_diameter_min": 104.8431420431,
            "estimated_diameter_max": 234.436392583
        }
    },
    "is_potentially_hazardous_asteroid": false,
    "close_approach_data": [
        {
            "close_approach_date": "1954-03-22",
            "close_approach_date_full": "1954-Mar-22 10:07",
            "epoch_date_close_approach": -497973180000,
            "relative_velocity": {
                "kilometers_per_second": "17.675345296",
                "kilometers_per_hour": "63631.2430654708",
                "miles_per_hour": "39537.9798925421"
            },
            "miss_distance": {
                "astronomical": "0.0783606524",
                "lunar": "30.4822937836",
                "kilometers": "11722586.690850388",
                "miles": "7284077.6025278344"
            },
            "orbiting_body": "Earth"
        },
        {
            "close_approach_date": "2019-09-12",
            "close_approach_date_full": "2019-Sep-12 15:05",
            "epoch_date_close_approach": 1568300700000,
            "relative_velocity": {
                "kilometers_per_second": "13.290660959",
                "kilometers_per_hour": "47846.3794523982",
                "miles_per_hour": "29729.879499186"
            },
            "miss_distance": {
                "astronomical": "0.1161289144",
                "lunar": "45.1741477016",
                "kilometers": "17372638.239652328",
                "miles": "10794856.8379570064"
            },
            "orbiting_body": "Earth"
        },
        {
            "close_approach_date": "2075-04-05",
            "close_approach_date_full": "2075-Apr-05 17:39",
            "epoch_date_close_approach": 3321711540000,
            "relative_velocity": {
                "kilometers_per_second": "12.3089806951",
                "kilometers_per_hour": "44312.3305022131",
                "miles_per_hour": "27533.9589167779"
            },
            "miss_distance": {
                "astronomical": "0.1421456275",
                "lunar": "55.2946490975",
                "kilometers": "21264683.103813425",
                "miles": "13213261.373638265"
            },
            "orbiting_body": "Earth"
        },
        {
            "close_approach_date": "2078-09-06",
            "close_approach_date_full": "2078-Sep-06 17:27",
            "epoch_date_close_approach": 3429710820000,
            "relative_velocity": {
                "kilometers_per_second": "10.214883016",
                "kilometers_per_hour": "36773.5788576018",
                "miles_per_hour": "22849.6718184915"
            },
            "miss_distance": {
                "astronomical": "0.2408245938",
                "lunar": "93.6807669882",
                "kilometers": "36026846.276095206",
                "miles": "22386044.2213016028"
            },
            "orbiting_body": "Earth"
        },
        {
            "close_approach_date": "2126-10-01",
            "close_approach_date_full": "2126-Oct-01 11:50",
            "epoch_date_close_approach": 4946529000000,
            "relative_velocity": {
                "kilometers_per_second": "24.2700132521",
                "kilometers_per_hour": "87372.047707411",
                "miles_per_hour": "54289.5926435299"
            },
            "miss_distance": {
                "astronomical": "0.3309029522",
                "lunar": "128.7212484058",
                "kilometers": "49502376.825831814",
                "miles": "30759350.6295304732"
            },
            "orbiting_body": "Earth"
        }
    ],
    "orbital_data": {
        "orbit_id": "5",
        "orbit_determination_date": "2019-10-08 05:58:14",
        "first_observation_date": "2019-09-30",
        "last_observation_date": "2019-10-08",
        "data_arc_in_days": 8,
        "observations_used": 25,
        "orbit_uncertainty": "9",
        "minimum_orbit_intersection": ".000162638",
        "jupiter_tisserand_invariant": "4.757",
        "epoch_osculation": "2458758.5",
        "eccentricity": ".4468339301830617",
        "semi_major_axis": "1.339844010279207",
        "inclination": "15.88297553627815",
        "ascending_node_longitude": "5.735722420341673",
        "orbital_period": "566.4737444627131",
        "perihelion_distance": ".7411562453339143",
        "perihelion_argument": "260.573703488428",
        "aphelion_distance": "1.938531775224499",
        "perihelion_time": "2458678.027566316905",
        "mean_anomaly": "51.1410747790114",
        "mean_motion": ".6355104777917845",
        "equinox": "J2000",
        "orbit_class": {
            "orbit_class_type": "APO",
            "orbit_class_description": "Near-Earth asteroid orbits which cross the Earth’s orbit similar to that of 1862 Apollo",
            "orbit_class_range": "a (semi-major axis) > 1.0 AU; q (perihelion) < 1.017 AU"
        }
    },
    "is_sentry_object": false
}